start=new Date('2023-01-01T00:00:00.000Z').valueOf();
sats=[{"RCS_SIZE":"LARGE","PERIOD":"95.590","MEAN_MOTION_DDOT":"0.0000000000000","ARG_OF_PERICENTER":"89.1659","COUNTRY_CODE":"US","MEAN_MOTION":"15.06432623","OBJECT_ID":"2020-025BE","ELEMENT_SET_NO":"999","RA_OF_ASC_NODE":"262.3842","BSTAR":"0.00051360000000","DECAY_DATE":null,"REV_AT_EPOCH":"15005","NORAD_CAT_ID":"45583","OBJECT_NAME":"STARLINK-1340","REF_FRAME":"TEME","ECCENTRICITY":"0.00014660","MEAN_MOTION_DOT":"0.00007383","TLE_LINE2":"2 45583  53.0532 262.3842 0001466  89.1659 270.9498 15.06432623150059","APOAPSIS":"548.129","SITE":"AFETR","OBJECT_TYPE":"PAYLOAD","CENTER_NAME":"EARTH","TLE_LINE1":"1 45583U 20025BE  22365.61066900  .00007383  00000-0  51360-3 0  9999","PERIAPSIS":"546.098","LAUNCH_DATE":"2020-04-22","SEMIMAJOR_AXIS":"6925.249","EPOCH":"2022-12-31T14:39:21.801600","MEAN_ANOMALY":"270.9498","TIME_SYSTEM":"UTC","FILE":"3728081","MEAN_ELEMENT_THEORY":"SGP4","INCLINATION":"53.0532","GP_ID":"221887736","EPHEMERIS_TYPE":"0","CLASSIFICATION_TYPE":"U"},{"MEAN_ANOMALY":"292.7574","SEMIMAJOR_AXIS":"6925.285","EPOCH":"2022-12-31T17:33:09.074592","TIME_SYSTEM":"UTC","OBJECT_TYPE":"PAYLOAD","PERIAPSIS":"545.997","TLE_LINE1":"1 45584U 20025BF  22365.73135503  .00005605  00000-0  39468-3 0  9999","LAUNCH_DATE":"2020-04-22","CENTER_NAME":"EARTH","EPHEMERIS_TYPE":"0","CLASSIFICATION_TYPE":"U","INCLINATION":"53.0510","FILE":"3728081","MEAN_ELEMENT_THEORY":"SGP4","GP_ID":"221886496","ELEMENT_SET_NO":"999","RA_OF_ASC_NODE":"261.8306","MEAN_MOTION":"15.06420611","OBJECT_ID":"2020-025BF","BSTAR":"0.00039468000000","PERIOD":"95.591","RCS_SIZE":"LARGE","MEAN_MOTION_DDOT":"0.0000000000000","ARG_OF_PERICENTER":"67.3591","COUNTRY_CODE":"US","MEAN_MOTION_DOT":"0.00005605","TLE_LINE2":"2 45584  53.0510 261.8306 0001666  67.3591 292.7574 15.06420611150073","APOAPSIS":"548.304","SITE":"AFETR","NORAD_CAT_ID":"45584","OBJECT_NAME":"STARLINK-1343","DECAY_DATE":null,"REV_AT_EPOCH":"15007","ECCENTRICITY":"0.00016660","REF_FRAME":"TEME"},{"TLE_LINE2":"2 45586  53.0505 261.4403 0001284  93.7415 266.3720 15.06410568150077","APOAPSIS":"548.070","SITE":"AFETR","MEAN_MOTION_DOT":"0.00004163","REF_FRAME":"TEME","ECCENTRICITY":"0.00012840","REV_AT_EPOCH":"15007","DECAY_DATE":null,"OBJECT_NAME":"STARLINK-1347","NORAD_CAT_ID":"45586","BSTAR":"0.00029809000000","OBJECT_ID":"2020-025BH","MEAN_MOTION":"15.06410568","RA_OF_ASC_NODE":"261.4403","ELEMENT_SET_NO":"999","ARG_OF_PERICENTER":"93.7415","COUNTRY_CODE":"US","MEAN_MOTION_DDOT":"0.0000000000000","RCS_SIZE":"LARGE","PERIOD":"95.591","CLASSIFICATION_TYPE":"U","EPHEMERIS_TYPE":"0","GP_ID":"221886746","MEAN_ELEMENT_THEORY":"SGP4","FILE":"3728081","INCLINATION":"53.0505","TIME_SYSTEM":"UTC","SEMIMAJOR_AXIS":"6925.316","EPOCH":"2022-12-31T19:41:54.473568","MEAN_ANOMALY":"266.3720","CENTER_NAME":"EARTH","LAUNCH_DATE":"2020-04-22","TLE_LINE1":"1 45586U 20025BH  22365.82076937  .00004163  00000-0  29809-3 0  9992","PERIAPSIS":"546.292","OBJECT_TYPE":"PAYLOAD"},{"PERIOD":"95.592","RCS_SIZE":"LARGE","MEAN_MOTION_DDOT":"0.0000000000000","ARG_OF_PERICENTER":"104.0750","COUNTRY_CODE":"US","ELEMENT_SET_NO":"999","RA_OF_ASC_NODE":"261.8654","OBJECT_ID":"2020-025BJ","MEAN_MOTION":"15.06404490","BSTAR":"0.00028285000000","NORAD_CAT_ID":"45587","OBJECT_NAME":"STARLINK-1349","DECAY_DATE":null,"REV_AT_EPOCH":"15007","ECCENTRICITY":"0.00014560","REF_FRAME":"TEME","MEAN_MOTION_DOT":"0.00003935","TLE_LINE2":"2 45587  53.0543 261.8654 0001456 104.0750 256.0401 15.06404490150070","APOAPSIS":"548.208","SITE":"AFETR","OBJECT_TYPE":"PAYLOAD","PERIAPSIS":"546.191","TLE_LINE1":"1 45587U 20025BJ  22365.72493104  .00003935  00000-0  28285-3 0  9994","LAUNCH_DATE":"2020-04-22","CENTER_NAME":"EARTH","MEAN_ANOMALY":"256.0401","SEMIMAJOR_AXIS":"6925.335","EPOCH":"2022-12-31T17:23:54.041856","TIME_SYSTEM":"UTC","INCLINATION":"53.0543","MEAN_ELEMENT_THEORY":"SGP4","FILE":"3728081","GP_ID":"221887497","EPHEMERIS_TYPE":"0","CLASSIFICATION_TYPE":"U"},{"REF_FRAME":"TEME","ECCENTRICITY":"0.00016110","DECAY_DATE":null,"REV_AT_EPOCH":"15007","NORAD_CAT_ID":"45588","OBJECT_NAME":"STARLINK-1360","TLE_LINE2":"2 45588  53.0538 261.6580 0001611  81.4381 278.6791 15.06427906150071","SITE":"AFETR","APOAPSIS":"548.244","MEAN_MOTION_DOT":"0.00012033","MEAN_MOTION_DDOT":"0.0000000000000","ARG_OF_PERICENTER":"81.4381","COUNTRY_CODE":"US","RCS_SIZE":"LARGE","PERIOD":"95.590","BSTAR":"0.00082471000000","MEAN_MOTION":"15.06427906","OBJECT_ID":"2020-025BK","ELEMENT_SET_NO":"999","RA_OF_ASC_NODE":"261.6580","GP_ID":"221888236","MEAN_ELEMENT_THEORY":"SGP4","FILE":"3728081","INCLINATION":"53.0538","CLASSIFICATION_TYPE":"U","EPHEMERIS_TYPE":"0","CENTER_NAME":"EARTH","TLE_LINE1":"1 45588U 20025BK  22365.76917657  .00012033  00000-0  82471-3 0  9999","PERIAPSIS":"546.012","LAUNCH_DATE":"2020-04-22","OBJECT_TYPE":"PAYLOAD","TIME_SYSTEM":"UTC","SEMIMAJOR_AXIS":"6925.263","EPOCH":"2022-12-31T18:27:36.855648","MEAN_ANOMALY":"278.6791"},{"TIME_SYSTEM":"UTC","SEMIMAJOR_AXIS":"6925.269","EPOCH":"2022-12-31T10:24:35.432352","MEAN_ANOMALY":"290.3900","CENTER_NAME":"EARTH","LAUNCH_DATE":"2020-04-22","PERIAPSIS":"545.967","TLE_LINE1":"1 45589U 20025BL  22365.43374343  .00006251  00000-0  43787-3 0  9995","OBJECT_TYPE":"PAYLOAD","CLASSIFICATION_TYPE":"U","EPHEMERIS_TYPE":"0","GP_ID":"221833274","FILE":"3727988","MEAN_ELEMENT_THEORY":"SGP4","INCLINATION":"53.0515","BSTAR":"0.00043787000000","OBJECT_ID":"2020-025BL","MEAN_MOTION":"15.06425824","RA_OF_ASC_NODE":"263.1769","ELEMENT_SET_NO":"999","COUNTRY_CODE":"US","ARG_OF_PERICENTER":"69.7270","MEAN_MOTION_DDOT":"0.0000000000000","RCS_SIZE":"LARGE","PERIOD":"95.591","SITE":"AFETR","TLE_LINE2":"2 45589  53.0515 263.1769 0001686  69.7270 290.3900 15.06425824150026","APOAPSIS":"548.302","MEAN_MOTION_DOT":"0.00006251","REF_FRAME":"TEME","ECCENTRICITY":"0.00016860","REV_AT_EPOCH":"15002","DECAY_DATE":null,"OBJECT_NAME":"STARLINK-1364","NORAD_CAT_ID":"45589"},{"CLASSIFICATION_TYPE":"U","EPHEMERIS_TYPE":"0","GP_ID":"221833026","INCLINATION":"53.0530","FILE":"3727988","MEAN_ELEMENT_THEORY":"SGP4","TIME_SYSTEM":"UTC","MEAN_ANOMALY":"320.7129","SEMIMAJOR_AXIS":"6925.323","EPOCH":"2022-12-31T12:22:40.678176","PERIAPSIS":"545.877","TLE_LINE1":"1 45590U 20025BM  22365.51574859  .00004628  00000-0  32930-3 0  9994","LAUNCH_DATE":"2020-04-22","CENTER_NAME":"EARTH","OBJECT_TYPE":"PAYLOAD","TLE_LINE2":"2 45590  53.0530 292.7977 0001893  39.3997 320.7129 15.06408372149638","APOAPSIS":"548.499","SITE":"AFETR","MEAN_MOTION_DOT":"0.00004628","ECCENTRICITY":"0.00018930","REF_FRAME":"TEME","NORAD_CAT_ID":"45590","OBJECT_NAME":"STARLINK-1365","DECAY_DATE":null,"REV_AT_EPOCH":"14963","BSTAR":"0.00032930000000","ELEMENT_SET_NO":"999","RA_OF_ASC_NODE":"292.7977","OBJECT_ID":"2020-025BM","MEAN_MOTION":"15.06408372","MEAN_MOTION_DDOT":"0.0000000000000","COUNTRY_CODE":"US","ARG_OF_PERICENTER":"39.3997","PERIOD":"95.592","RCS_SIZE":"LARGE"},{"MEAN_MOTION_DOT":"0.00005955","TLE_LINE2":"2 45658  53.0557 251.7261 0001383  55.6836 304.4284 15.06408586143306","SITE":"AFETR","APOAPSIS":"548.145","OBJECT_NAME":"STARLINK-1441","NORAD_CAT_ID":"45658","REV_AT_EPOCH":"14330","DECAY_DATE":null,"ECCENTRICITY":"0.00013830","REF_FRAME":"TEME","RA_OF_ASC_NODE":"251.7261","ELEMENT_SET_NO":"999","MEAN_MOTION":"15.06408586","OBJECT_ID":"2020-035B","BSTAR":"0.00041821000000","PERIOD":"95.592","RCS_SIZE":"LARGE","ARG_OF_PERICENTER":"55.6836","COUNTRY_CODE":"US","MEAN_MOTION_DDOT":"0.0000000000000","EPHEMERIS_TYPE":"0","CLASSIFICATION_TYPE":"U","INCLINATION":"53.0557","FILE":"3728081","MEAN_ELEMENT_THEORY":"SGP4","GP_ID":"221888241","MEAN_ANOMALY":"304.4284","SEMIMAJOR_AXIS":"6925.322","EPOCH":"2022-12-31T18:07:42.472416","TIME_SYSTEM":"UTC","OBJECT_TYPE":"PAYLOAD","LAUNCH_DATE":"2020-06-04","TLE_LINE1":"1 45658U 20035B   22365.75535269  .00005955  00000-0  41821-3 0  9991","PERIAPSIS":"546.229","CENTER_NAME":"EARTH"},{"SEMIMAJOR_AXIS":"6925.310","EPOCH":"2022-12-31T10:13:57.014112","MEAN_ANOMALY":"241.9017","TIME_SYSTEM":"UTC","OBJECT_TYPE":"PAYLOAD","CENTER_NAME":"EARTH","LAUNCH_DATE":"2020-06-04","PERIAPSIS":"546.049","TLE_LINE1":"1 45659U 20035C   22365.42635433  .00007546  00000-0  52474-3 0  9994","EPHEMERIS_TYPE":"0","CLASSIFICATION_TYPE":"U","MEAN_ELEMENT_THEORY":"SGP4","FILE":"3727988","INCLINATION":"53.0496","GP_ID":"221833279","MEAN_MOTION":"15.06412656","OBJECT_ID":"2020-035C","RA_OF_ASC_NODE":"253.1967","ELEMENT_SET_NO":"999","BSTAR":"0.00052474000000","RCS_SIZE":"LARGE","PERIOD":"95.591","COUNTRY_CODE":"US","ARG_OF_PERICENTER":"118.2136","MEAN_MOTION_DDOT":"0.0000000000000","MEAN_MOTION_DOT":"0.00007546","TLE_LINE2":"2 45659  53.0496 253.1967 0001625 118.2136 241.9017 15.06412656143241","APOAPSIS":"548.300","SITE":"AFETR","REV_AT_EPOCH":"14324","DECAY_DATE":null,"OBJECT_NAME":"STARLINK-1442","NORAD_CAT_ID":"45659","REF_FRAME":"TEME","ECCENTRICITY":"0.00016250"},{"MEAN_ELEMENT_THEORY":"SGP4","FILE":"3727988","INCLINATION":"53.0537","GP_ID":"221833031","EPHEMERIS_TYPE":"0","CLASSIFICATION_TYPE":"U","OBJECT_TYPE":"PAYLOAD","CENTER_NAME":"EARTH","TLE_LINE1":"1 45660U 20035D   22365.43466192  .00008806  00000-0  60881-3 0  9992","PERIAPSIS":"546.012","LAUNCH_DATE":"2020-06-04","SEMIMAJOR_AXIS":"6925.253","EPOCH":"2022-12-31T10:25:54.789888","MEAN_ANOMALY":"274.8309","TIME_SYSTEM":"UTC","DECAY_DATE":null,"REV_AT_EPOCH":"14325","NORAD_CAT_ID":"45660","OBJECT_NAME":"STARLINK-1443","REF_FRAME":"TEME","ECCENTRICITY":"0.00015970","MEAN_MOTION_DOT":"0.00008806","TLE_LINE2":"2 45660  53.0537 253.1720 0001597  85.2862 274.8309 15.06431092143258","SITE":"AFETR","APOAPSIS":"548.224","RCS_SIZE":"LARGE","PERIOD":"95.590","MEAN_MOTION_DDOT":"0.0000000000000","ARG_OF_PERICENTER":"85.2862","COUNTRY_CODE":"US","MEAN_MOTION":"15.06431092","OBJECT_ID":"2020-035D","ELEMENT_SET_NO":"999","RA_OF_ASC_NODE":"253.1720","BSTAR":"0.00060881000000"}];
